STARLINK-4590           
1 53606U 22104U   26068.69124645 -.00000371  00000+0 -51996-5 0  9995
2 53606  53.2171 234.2281 0001238  91.6865 268.4269 15.08834999195639
STARLINK-4591           
1 53607U 22104V   26068.75149280 -.00000529  00000+0 -15120-4 0  9998
2 53607  53.2164 238.8956 0001409  93.6563 266.4590 15.08841572195694
STARLINK-4647           
1 53608U 22104W   26068.76485397  .00000901  00000+0  74670-4 0  9999
2 53608  53.2173 233.9754 0001279  86.1443 273.9695 15.08840106195642
STARLINK-4660           
1 53609U 22104X   26068.71831445 -.00003321  00000+0 -19059-3 0  9994
2 53609  53.2154 238.6921 0001148 108.6927 251.4189 15.08851981195699
STARLINK-4610           
1 53610U 22104Y   26068.69220181 -.00000337  00000+0 -30827-5 0  9994
2 53610  53.2172 234.2353 0001225  91.6869 268.4263 15.08834911195633
STARLINK-4658           
1 53612U 22104AA  26068.68755641 -.00000309  00000+0 -13279-5 0  9990
2 53612  53.2169 234.2054 0001314  97.3600 262.7542 15.08835574195637
STARLINK-4655           
1 53613U 22104AB  26068.76117122  .00002119  00000+0  15125-3 0  9995
2 53613  53.2181 233.9544 0001259  94.5450 265.5686 15.08826646195643
STARLINK-4605           
1 53616U 22104AE  26068.75102808  .00002527  00000+0  17686-3 0  9999
2 53616  53.2171 223.7215 0001185  77.6786 282.4338 15.08832950195893
STARLINK-4609           
1 53619U 22104AH  26068.74642396 -.00000885  00000+0 -37526-4 0  9995
2 53619  53.2168 233.8605 0001162  88.6909 271.4217 15.08822218195644
STARLINK-4615           
1 53620U 22104AJ  26068.73168660  .00000160  00000+0  28121-4 0  9998
2 53620  53.2169 233.7698 0001223  96.1000 264.0131 15.08842231195754
STARLINK-4608           
1 53621U 22104AK  26068.74274331  .00000311  00000+0  37607-4 0  9990
2 53621  53.2167 233.8378 0001369  88.8509 271.2640 15.08836947195642
STARLINK-4568           
1 53622U 22104AL  26068.70957178  .00002597  00000+0  18113-3 0  9992
2 53622  53.2167 233.6367 0001785  62.4392 297.6781 15.08857708195757
STARLINK-4573           
1 53623U 22104AM  26068.86785358 -.00000557  00000+0 -16891-4 0  9997
2 53623  53.2163 233.1969 0001281  91.6885 268.4254 15.08845090195773
STARLINK-4596           
1 53624U 22104AN  26068.72431589 -.00000158  00000+0  81557-5 0  9995
2 53624  53.2167 233.7245 0001281  79.3996 280.7140 15.08839834195755
STARLINK-4554           
1 53626U 22104AQ  26068.71327027  .00001432  00000+0  10801-3 0  9994
2 53626  53.2169 233.6567 0001351  70.9294 289.1844 15.08851935195762
STARLINK-4595           
1 53627U 22104AR  26068.72063302 -.00000201  00000+0  54794-5 0  9994
2 53627  53.2163 233.6996 0001283  87.2127 272.9012 15.08839138195761
STARLINK-4600           
1 53628U 22104AS  26068.70589816  .00000215  00000+0  31588-4 0  9995
2 53628  53.2158 233.6107 0001764 103.2104 256.9085 15.08840650195761
